#aV2011 10  2  0  0   .00000000      96 DD+AD WGS84 FIT  NGA
## 1656       .00000000   900.00000000 55836  .0000000000000
+   31     1  2  3  4  5  6  7  8  9 10 11 12 13 14 15 16 17
+         18 19 20 21 22 23 25 26 27 28 29 30 31 32  0  0  0
+          0  0  0  0  0  0  0  0  0  0  0  0  0  0  0  0  0
+          0  0  0  0  0  0  0  0  0  0  0  0  0  0  0  0  0
+          0  0  0  0  0  0  0  0  0  0  0  0  0  0  0  0  0
++         0  0  0  0  0  0  0  0  0  0  0  0  0  0  0  0  0
++         0  0  0  0  0  0  0  0  0  0  0  0  0  0  0  0  0
++         0  0  0  0  0  0  0  0  0  0  0  0  0  0  0  0  0
++         0  0  0  0  0  0  0  0  0  0  0  0  0  0  0  0  0
++         0  0  0  0  0  0  0  0  0  0  0  0  0  0  0  0  0
%c cc cc ccc ccc cccc cccc cccc cccc ccccc ccccc ccccc ccccc
%c cc cc ccc ccc cccc cccc cccc cccc ccccc ccccc ccccc ccccc
%f  0.0000000  0.000000000  0.00000000000  0.000000000000000
%f  0.0000000  0.000000000  0.00000000000  0.000000000000000
%i    0    0    0    0      0      0      0      0         0
%i    0    0    0    0      0      0      0      0         0
/*      NGA, ST. LOUIS,MO.                                  
/*   EPHEMERIS COMPUTED FROM  3 DAYS OF DATA                
/* CCCCCCCCCCCCCCCCCCCCCCCCCCCCCCCCCCCCCCCCCCCCCCCCCCCCCCCCC
/* CCCCCCCCCCCCCCCCCCCCCCCCCCCCCCCCCCCCCCCCCCCCCCCCCCCCCCCCC
*  2011 10  2 15 45   .00000000                                                 
P  1  13633.118203 -22589.512929   3039.828349     -5.008627                    
V  1    778.945748   4717.129398  31439.993722      -.017008                    
P  2 -17623.481232   4079.436229 -19209.321294    358.917681                    
V  2   9244.692272 -23066.602937 -13821.743341       .018273                    
P  3  20043.666064   4438.050495  16561.505978    775.989931                    
V  3  12433.697030  18134.162087 -19090.704785       .050097                    
P  4 -11967.832822 -10851.835987 -21270.005230    248.600482                    
V  4  12704.389246 -23397.199793   5180.677563       .112884                    
P  5 -26527.341309   2104.018639    905.758433   -226.277237                    
V  5  -1323.145321  -2895.807303 -31475.484356      -.051825                    
P  6  20250.801763   9164.341265  14858.886797    -57.639267                    
V  6   9051.972647  16418.920775 -22422.142528       .079920                    
P  7   4050.062503 -23736.996139  10941.881591     29.685270                    
V  7   8426.900386 -11322.265704 -27945.418745       .019627                    
P  8  -2655.716052 -18483.061633  18685.148264       .022746                    
V  8  13642.787288 -19500.147561 -17945.346134       .001215                    
P  9 -14807.400173  21026.918328   6133.463408    109.207767                    
V  9   1868.499520  -8533.932670  30977.352325       .023827                    
P 10 -19627.826101 -10263.271942 -15156.583104    -15.009110                    
V 10  18661.483822  -2594.370875 -22364.083579      -.011071                    
P 11  13109.167891 -20129.096361  10610.407857   -191.112123                    
V 11   1602.481578  14945.164719  25875.262119      -.034649                    
P 12 -16802.170536  11860.344229 -16701.825860     26.023756                    
V 12 -21296.167408   -888.284619  20948.677532       .023729                    
P 13  -1751.323595 -22633.984968 -13855.801769    248.642064                    
V 13   9535.578152  14572.305030 -25335.755435      -.018797                    
P 14  15176.898552  21522.666848  -3851.198671    174.982752                    
V 14    737.231016   5420.186706  31607.728247       .017475                    
P 15 -12019.011492   9838.735054  21547.874358   -104.033419                    
V 15 -15590.330215 -22525.344633   1766.260850       .014188                    
P 16  26530.751479  -2063.625419   2430.430433   -201.096968                    
V 16   3070.247744   1975.464092 -31734.380969      -.021501                    
P 17 -15764.195257 -21210.354909  -3579.000084    172.580747                    
V 17   -226.910515  -5347.321248  31188.017506      -.016144                    
P 18   3603.040306  15785.252012  21420.712593    160.183121                    
V 18 -26471.429476   1262.071635   3209.151910       .018623                    
P 19  14101.349424  -5913.345765  21701.261494   -190.029673                    
V 19  13027.033053  24348.418350  -1469.905487      -.040209                    
P 20  15101.617220 -14002.787796 -16878.820535     53.777902                    
V 20  21399.088589    293.071143  19133.019023       .005622                    
P 21     37.241816  22531.230253  14012.798103   -175.297374                    
V 21 -10770.809839  14002.514162 -23814.151728      -.024673                    
P 22  17725.794428  11548.181520  16305.790938    144.151202                    
V 22 -20328.424986   3068.514310  20038.071756      -.001319                    
P 23   5424.468625 -16932.905658 -19590.692845    271.225709                    
V 23  14557.182196  20414.804323 -13953.371155      -.031155                    
P 25  -5070.132623  15089.619801 -21283.418029     21.466485                    
V 25 -26935.160554   1143.590288   7262.229431       .017950                    
P 26 -16936.970698  -4037.212817  19582.488954   -176.916232                    
V 26 -11641.451449 -23262.249460 -14056.640312      -.129961                    
P 27 -16939.712685  15849.480895  13216.830294    311.115088                    
V 27   4924.312829 -15174.471232  26141.613879       .038732                    
P 28 -14317.689219 -12743.384221  19022.603441     72.262839                    
V 28  22921.265351  -1153.427302  16708.554637       .031361                    
P 29   2422.169016  22658.573442 -13614.854673    244.890400                    
V 29 -10734.448713 -13835.680660 -24776.503578       .032551                    
P 30   9539.543724  13591.858477 -21133.328323     76.180164                    
V 30 -25518.879602   4715.876774  -8649.169649      -.072669                    
P 31  12851.339833   7119.678741 -21925.277759    149.743558                    
V 31 -13256.601228  24967.085698    540.820609       .054059                    
P 32  22229.094554  -7558.406082 -11712.572347   -338.743184                    
V 32  15349.786662   3479.837574  26733.510227      -.064075                    
EOF
